[{"OBJECT_NAME":"HXMT (HUIYAN)","OBJECT_ID":"2017-034A","EPOCH":"2026-03-04T20:10:46.993152","MEAN_MOTION":15.17385045,"ECCENTRICITY":0.0032437,"INCLINATION":43.0151,"RA_OF_ASC_NODE":43.6284,"ARG_OF_PERICENTER":206.3154,"MEAN_ANOMALY":153.6047,"EPHEMERIS_TYPE":0,"CLASSIFICATION_TYPE":"U","NORAD_CAT_ID":42758,"ELEMENT_SET_NO":999,"REV_AT_EPOCH":48180,"BSTAR":0.00036894,"MEAN_MOTION_DOT":7.372e-5,"MEAN_MOTION_DDOT":0},{"OBJECT_NAME":"SAOCOM 1A","OBJECT_ID":"2018-076A","EPOCH":"2026-03-04T19:58:25.212000","MEAN_MOTION":14.8216533,"ECCENTRICITY":0.0001328,"INCLINATION":97.8882,"RA_OF_ASC_NODE":252.0735,"ARG_OF_PERICENTER":81.672,"MEAN_ANOMALY":278.4643,"EPHEMERIS_TYPE":0,"CLASSIFICATION_TYPE":"U","NORAD_CAT_ID":43641,"ELEMENT_SET_NO":999,"REV_AT_EPOCH":40064,"BSTAR":0.00014503,"MEAN_MOTION_DOT":1.103e-5,"MEAN_MOTION_DDOT":0},{"OBJECT_NAME":"H-2A R/B","OBJECT_ID":"2018-084L","EPOCH":"2026-03-04T11:22:31.859904","MEAN_MOTION":15.41086443,"ECCENTRICITY":0.00258107,"INCLINATION":98.8732,"RA_OF_ASC_NODE":279.7485,"ARG_OF_PERICENTER":42.8998,"MEAN_ANOMALY":317.4252,"EPHEMERIS_TYPE":0,"CLASSIFICATION_TYPE":"U","NORAD_CAT_ID":43682,"ELEMENT_SET_NO":999,"REV_AT_EPOCH":40497,"BSTAR":0.00075106107,"MEAN_MOTION_DOT":0.00031408,"MEAN_MOTION_DDOT":0},{"OBJECT_NAME":"SAOCOM 1B","OBJECT_ID":"2020-059A","EPOCH":"2026-03-04T19:06:09.933120","MEAN_MOTION":14.82165755,"ECCENTRICITY":0.0001434,"INCLINATION":97.8881,"RA_OF_ASC_NODE":251.1356,"ARG_OF_PERICENTER":81.0295,"MEAN_ANOMALY":279.1081,"EPHEMERIS_TYPE":0,"CLASSIFICATION_TYPE":"U","NORAD_CAT_ID":46265,"ELEMENT_SET_NO":999,"REV_AT_EPOCH":29802,"BSTAR":6.4873e-5,"MEAN_MOTION_DOT":4.64e-6,"MEAN_MOTION_DDOT":0},{"OBJECT_NAME":"CSS (TIANHE)","OBJECT_ID":"2021-035A","EPOCH":"2026-03-04T18:54:23.016096","MEAN_MOTION":15.60402079,"ECCENTRICITY":0.0006814,"INCLINATION":41.4657,"RA_OF_ASC_NODE":237.9826,"ARG_OF_PERICENTER":244.257,"MEAN_ANOMALY":115.7565,"EPHEMERIS_TYPE":0,"CLASSIFICATION_TYPE":"U","NORAD_CAT_ID":48274,"ELEMENT_SET_NO":999,"REV_AT_EPOCH":27684,"BSTAR":0.00025733,"MEAN_MOTION_DOT":0.00021476,"MEAN_MOTION_DDOT":0},{"OBJECT_NAME":"COSMOS 2550","OBJECT_ID":"2021-056A","EPOCH":"2026-03-04T21:18:07.934112","MEAN_MOTION":15.33827808,"ECCENTRICITY":0.0008389,"INCLINATION":67.1448,"RA_OF_ASC_NODE":55.4573,"ARG_OF_PERICENTER":269.3861,"MEAN_ANOMALY":90.6332,"EPHEMERIS_TYPE":0,"CLASSIFICATION_TYPE":"U","NORAD_CAT_ID":48865,"ELEMENT_SET_NO":999,"REV_AT_EPOCH":26272,"BSTAR":-1.3854e-7,"MEAN_MOTION_DOT":-1.96e-6,"MEAN_MOTION_DDOT":0},{"OBJECT_NAME":"CZ-2C R/B","OBJECT_ID":"2022-058K","EPOCH":"2026-03-04T04:12:27.832032","MEAN_MOTION":15.53767749,"ECCENTRICITY":0.00421784,"INCLINATION":50.1907,"RA_OF_ASC_NODE":346.6454,"ARG_OF_PERICENTER":177.4326,"MEAN_ANOMALY":182.6868,"EPHEMERIS_TYPE":0,"CLASSIFICATION_TYPE":"U","NORAD_CAT_ID":52794,"ELEMENT_SET_NO":999,"REV_AT_EPOCH":20927,"BSTAR":0.00067772145,"MEAN_MOTION_DOT":0.00045844,"MEAN_MOTION_DDOT":0},{"OBJECT_NAME":"CZ-2C R/B","OBJECT_ID":"2022-132E","EPOCH":"2026-03-04T12:02:12.475392","MEAN_MOTION":15.6133597,"ECCENTRICITY":0.00207008,"INCLINATION":97.296,"RA_OF_ASC_NODE":66.6628,"ARG_OF_PERICENTER":107.7548,"MEAN_ANOMALY":252.5971,"EPHEMERIS_TYPE":0,"CLASSIFICATION_TYPE":"U","NORAD_CAT_ID":54039,"ELEMENT_SET_NO":999,"REV_AT_EPOCH":18956,"BSTAR":0.00070215251,"MEAN_MOTION_DOT":0.00060531,"MEAN_MOTION_DDOT":0},{"OBJECT_NAME":"GSLV R/B","OBJECT_ID":"2022-138AN","EPOCH":"2026-03-04T07:19:49.734336","MEAN_MOTION":14.96730402,"ECCENTRICITY":0.00222219,"INCLINATION":87.3887,"RA_OF_ASC_NODE":168.1641,"ARG_OF_PERICENTER":165.3258,"MEAN_ANOMALY":194.8623,"EPHEMERIS_TYPE":0,"CLASSIFICATION_TYPE":"U","NORAD_CAT_ID":54149,"ELEMENT_SET_NO":999,"REV_AT_EPOCH":18312,"BSTAR":0.00048444434,"MEAN_MOTION_DOT":5.589e-5,"MEAN_MOTION_DDOT":0},{"OBJECT_NAME":"XRISM","OBJECT_ID":"2023-137A","EPOCH":"2026-03-04T18:05:24.710208","MEAN_MOTION":15.11433296,"ECCENTRICITY":0.0008132,"INCLINATION":31.0029,"RA_OF_ASC_NODE":315.5881,"ARG_OF_PERICENTER":348.4623,"MEAN_ANOMALY":11.5828,"EPHEMERIS_TYPE":0,"CLASSIFICATION_TYPE":"U","NORAD_CAT_ID":57800,"ELEMENT_SET_NO":999,"REV_AT_EPOCH":13704,"BSTAR":0.00045695,"MEAN_MOTION_DOT":8.02e-5,"MEAN_MOTION_DDOT":0},{"OBJECT_NAME":"ACS3","OBJECT_ID":"2024-077B","EPOCH":"2026-03-04T10:58:22.856736","MEAN_MOTION":13.89335925,"ECCENTRICITY":0.00557473,"INCLINATION":97.2108,"RA_OF_ASC_NODE":5.7453,"ARG_OF_PERICENTER":90.7142,"MEAN_ANOMALY":270.041,"EPHEMERIS_TYPE":0,"CLASSIFICATION_TYPE":"U","NORAD_CAT_ID":59588,"ELEMENT_SET_NO":999,"REV_AT_EPOCH":9347,"BSTAR":0.020889948,"MEAN_MOTION_DOT":0.00025829,"MEAN_MOTION_DDOT":0},{"OBJECT_NAME":"SZ-21 MODULE","OBJECT_ID":"2025-246C","EPOCH":"2026-03-04T12:48:09.680832","MEAN_MOTION":15.68084352,"ECCENTRICITY":0.0001435,"INCLINATION":41.4731,"RA_OF_ASC_NODE":235.0908,"ARG_OF_PERICENTER":286.9627,"MEAN_ANOMALY":73.1057,"EPHEMERIS_TYPE":0,"CLASSIFICATION_TYPE":"U","NORAD_CAT_ID":66515,"ELEMENT_SET_NO":999,"REV_AT_EPOCH":1726,"BSTAR":0.00041049,"MEAN_MOTION_DOT":0.00046935,"MEAN_MOTION_DDOT":0}]
